{
  "features": [
    {
      "geometry": {
        "coordinates": [
          [
            [
              0,
              0
            ],
            [
              1,
              0
            ],
            [
              1,
              1
            ],
            [
              0,
              1
            ],
            [
              0,
              0
            ]
          ]
        ],
        "type": "Polygon"
      },
      "properties": {
        "department_id": "001",
        "name": "Synthetic 001"
      },
      "type": "Feature"
    },
    {
      "geometry": {
        "coordinates": [
          [
            [
              2,
              0
            ],
            [
              3,
              0
            ],
            [
              3,
              1
            ],
            [
              2,
              1
            ],
            [
              2,
              0
            ]
          ]
        ],
        "type": "Polygon"
      },
      "properties": {
        "department_id": "002",
        "name": "Synthetic 002"
      },
      "type": "Feature"
    },
    {
      "geometry": {
        "coordinates": [
          [
            [
              4,
              0
            ],
            [
              5,
              0
            ],
            [
              5,
              1
            ],
            [
              4,
              1
            ],
            [
              4,
              0
            ]
          ]
        ],
        "type": "Polygon"
      },
      "properties": {
        "department_id": "003",
        "name": "Synthetic 003"
      },
      "type": "Feature"
    }
  ],
  "type": "FeatureCollection"
}
